OBJECT_NAME,OBJECT_ID,EPOCH,MEAN_MOTION,ECCENTRICITY,INCLINATION,RA_OF_ASC_NODE,ARG_OF_PERICENTER,MEAN_ANOMALY,EPHEMERIS_TYPE,CLASSIFICATION_TYPE,NORAD_CAT_ID,ELEMENT_SET_NO,REV_AT_EPOCH,BSTAR,MEAN_MOTION_DOT,MEAN_MOTION_DDOT
PROBA-1,2001-049B,2026-06-18T14:19:37.223040,15.07497695,.00564672,97.9594,178.1789,117.1982,243.5015,0,U,26958,999,34383,.79111667E-4,.1173E-4,0
CUTE-1 (CO-55),2003-031E,2026-06-18T00:29:44.023488,14.24336174,.00096097,98.6736,177.5689,175.5784,184.5482,0,U,27844,999,19179,.11471233E-3,.221E-5,0
CUBESAT XI-IV (CO-57),2003-031J,2026-06-17T22:32:30.413760,14.23621196,.0009073,98.6765,177.2007,194.7196,165.3719,0,U,27848,999,19148,.10079477E-3,.186E-5,0
APRIZESAT 4,2009-041D,2026-06-18T11:17:58.240608,14.83880771,.00423267,98.1412,244.8169,318.7979,41.0042,0,U,35684,999,91155,.66390615E-4,.5E-5,0
APRIZESAT 3,2009-041F,2026-06-18T10:28:31.064160,14.96245554,.00628029,98.2065,322.7199,63.7248,297.0406,0,U,35686,999,91656,.14062369E-3,.1583E-4,0
PROBA-2,2009-059B,2026-06-18T01:34:43.386816,14.54862763,.00119481,98.2450,352.4063,279.1293,80.8552,0,U,36037,999,88165,.40499828E-4,.129E-5,0
APRIZESAT 5,2011-044E,2026-06-18T13:27:58.438656,14.81078623,.0052226,98.2452,102.6404,359.9278,0.1917,0,U,37792,999,79899,.11629064E-3,.864E-5,0
APRIZESAT 6,2011-044F,2026-06-18T12:32:59.387712,14.76917579,.00444973,98.2363,80.0498,81.8973,91.5538,0,U,37793,999,79734,.9270194E-4,.606E-5,0
PROBA-V,2013-021A,2026-06-18T09:13:21.907776,14.23597149,.00051853,98.3584,147.9318,120.6226,239.5465,0,U,39159,999,68128,.38300589E-4,.46E-6,0
APRIZESAT 7,2013-066A,2026-06-18T08:40:33.168000,14.91566307,.00350896,97.7709,122.5645,205.3037,154.6464,0,U,39416,999,68140,.9927561E-4,.949E-5,0
APRIZESAT 8,2013-066K,2026-06-18T06:50:14.413056,14.87654398,.00444006,97.8221,116.7374,282.8266,76.7992,0,U,39425,999,67983,.86789853E-4,.746E-5,0
BUGSAT-1 (TITA),2014-033E,2026-06-18T13:18:50.100192,15.15597000,.00281174,98.0429,262.1836,173.6827,186.4765,0,U,40014,999,65604,.21269521E-3,.4002E-4,0
SAUDISAT 4,2014-033G,2026-06-18T09:41:29.959008,14.79546128,.00461199,97.7584,315.4963,70.1505,290.4670,0,U,40016,999,64625,.74909128E-4,.519E-5,0
APRIZESAT 9,2014-033J,2026-06-18T15:11:28.205376,14.74216240,.00658011,97.9064,302.7962,194.4917,165.4407,0,U,40018,999,64377,.88867503E-4,.554E-5,0
APRIZESAT 10,2014-033K,2026-06-18T14:57:29.084256,14.70883484,.00773937,97.9652,296.5506,269.1750,90.0589,0,U,40019,999,64246,.61063726E-4,.337E-5,0
TECHDEMOSAT-1 (TDS-1),2014-037H,2026-06-18T09:57:20.862720,15.13307168,.00045616,98.3815,161.7492,260.1558,99.9156,0,U,40076,999,64841,.34198556E-3,.6014E-4,0
TECHNOSAT,2017-042E,2026-06-18T09:06:35.299872,15.04968515,.00190303,97.4292,326.9915,90.4858,269.8549,0,U,42829,999,48688,.2123523E-3,.2963E-4,0
FLYING LAPTOP,2017-042G,2026-06-18T14:02:52.780704,15.01153248,.00196076,97.4693,325.0638,117.0555,243.2674,0,U,42831,999,48666,.21898365E-3,.276E-4,0
HAWK-A,2018-099H,2026-06-18T14:16:56.455968,15.24656260,.00330932,97.3909,221.8128,280.6489,79.1022,0,U,43765,999,41331,.19567869E-3,.4833E-4,0
HAWK-B,2018-099AN,2026-06-18T02:13:24.298176,15.22833749,.00304194,97.3957,220.7302,301.5982,58.2287,0,U,43794,999,41317,.20864898E-3,.4871E-4,0
HAWK-C,2018-099AT,2026-06-18T13:38:34.534464,15.28118274,.00387064,97.3885,222.7056,280.6754,79.0128,0,U,43799,999,41412,.21508391E-3,.5949E-4,0
SALSAT,2020-068K,2026-06-18T10:53:20.067072,15.29814902,.00079869,97.8850,172.5955,302.8690,57.1780,0,U,46495,999,31555,.21400854E-3,.61E-4,0
HAWK-2C,2021-006CT,2026-06-18T09:23:13.610400,15.34675098,.00068244,97.2272,213.6771,181.5292,178.5932,0,U,47502,999,29968,.15365925E-3,.5088E-4,0
HAWK-2A,2021-006CW,2026-06-18T14:08:28.340160,15.34692005,.00062763,97.2312,214.5499,183.7955,176.3242,0,U,47505,999,29971,.15553545E-3,.5154E-4,0
HAWK-2B,2021-006CZ,2026-06-18T01:30:50.476608,15.34776989,.00068081,97.2185,212.3643,183.8760,176.2432,0,U,47508,999,29963,.18269904E-3,.6085E-4,0
HAWK-3B,2021-059BE,2026-06-18T02:08:35.452608,15.69620903,.000318,97.6654,5.8821,327.3278,32.7786,0,U,48931,999,27799,.31818509E-3,.37571E-3,0
HAWK-3C,2021-059BX,2026-06-18T02:08:07.416672,15.69618054,.00034902,97.6772,11.5690,328.3716,31.7335,0,U,48948,999,27799,.29340619E-3,.34621E-3,0
HAWK-3A,2021-059CG,2026-06-18T06:43:19.148736,15.69650937,.00034604,97.6716,8.9829,329.5051,30.6008,0,U,48957,999,27802,.32290732E-3,.38183E-3,0
HAWK-5C,2022-057Y,2026-06-18T09:33:59.755392,15.51427738,.00049472,97.6605,329.1429,79.6625,280.5183,0,U,52754,999,22653,.2399456E-3,.14052E-3,0
HAWK-5B,2022-057AA,2026-06-18T09:33:46.584576,15.51429515,.00056115,97.6614,327.4921,72.4608,287.7256,0,U,52756,999,22653,.24772709E-3,.14515E-3,0
