PROBA-1                 
1 26958U 01049B   26169.59695860  .00001173  00000+0  79112-4 0  9991
2 26958  97.9594 178.1789 0056467 117.1982 243.5015 15.07497695343837
CUTE-1 (CO-55)          
1 27844U 03031E   26169.02064842  .00000221  00000+0  11471-3 0  9993
2 27844  98.6736 177.5689 0009609 175.5784 184.5482 14.24336174191794
CUBESAT XI-IV (CO-57)   
1 27848U 03031J   26168.93924090  .00000186  00000+0  10079-3 0  9999
2 27848  98.6765 177.2007 0009073 194.7196 165.3719 14.23621196191482
APRIZESAT 4             
1 35684U 09041D   26169.47081297  .00000500  00000+0  66391-4 0  9995
2 35684  98.1412 244.8169 0042326 318.7979  41.0042 14.83880771911557
APRIZESAT 3             
1 35686U 09041F   26169.43647065  .00001583  00000+0  14062-3 0  9993
2 35686  98.2065 322.7199 0062802  63.7248 297.0406 14.96245554916561
PROBA-2                 
1 36037U 09059B   26169.06577994  .00000129  00000+0  40500-4 0  9997
2 36037  98.2450 352.4063 0011948 279.1293  80.8552 14.54862763881650
APRIZESAT 5             
1 37792U 11044E   26169.56109304  .00000864  00000+0  11629-3 0  9999
2 37792  98.2452 102.6404 0052226 359.9278   0.1917 14.81078623798997
APRIZESAT 6             
1 37793U 11044F   26169.52290958  .00000606  00000+0  92702-4 0  9998
2 37793  98.2363  80.0498 0044497  81.8973  91.5538 14.76917579797342
PROBA-V                 
1 39159U 13021A   26169.38428134  .00000046  00000+0  38301-4 0  9999
2 39159  98.3584 147.9318 0005185 120.6226 239.5465 14.23597149681281
APRIZESAT 7             
1 39416U 13066A   26169.36149500  .00000949  00000+0  99276-4 0  9999
2 39416  97.7709 122.5645 0035089 205.3037 154.6464 14.91566307681405
APRIZESAT 8             
1 39425U 13066K   26169.28488904  .00000746  00000+0  86790-4 0  9996
2 39425  97.8221 116.7374 0044400 282.8266  76.7992 14.87654398679837
BUGSAT-1 (TITA)         
1 40014U 14033E   26169.55474653  .00004002  00000+0  21270-3 0  9993
2 40014  98.0429 262.1836 0028117 173.6827 186.4765 15.15597000656045
SAUDISAT 4              
1 40016U 14033G   26169.40381897  .00000519  00000+0  74909-4 0  9993
2 40016  97.7584 315.4963 0046119  70.1505 290.4670 14.79546128646251
APRIZESAT 9             
1 40018U 14033J   26169.63296534  .00000554  00000+0  88868-4 0  9991
2 40018  97.9064 302.7962 0065801 194.4917 165.4407 14.74216240643779
APRIZESAT 10            
1 40019U 14033K   26169.62325329  .00000337  00000+0  61064-4 0  9994
2 40019  97.9652 296.5506 0077393 269.1750  90.0589 14.70883484642466
TECHDEMOSAT-1 (TDS-1)   
1 40076U 14037H   26169.41482480  .00006014  00000+0  34199-3 0  9996
2 40076  98.3815 161.7492 0004561 260.1558  99.9156 15.13307168648413
TECHNOSAT               
1 42829U 17042E   26169.37957523  .00002963  00000+0  21235-3 0  9999
2 42829  97.4292 326.9915 0019030  90.4858 269.8549 15.04968515486883
FLYING LAPTOP           
1 42831U 17042G   26169.58533311  .00002760  00000+0  21898-3 0  9990
2 42831  97.4693 325.0638 0019607 117.0555 243.2674 15.01153248486660
HAWK-A                  
1 43765U 18099H   26169.59509787  .00004833  00000+0  19568-3 0  9995
2 43765  97.3909 221.8128 0033093 280.6489  79.1022 15.24656260413313
HAWK-B                  
1 43794U 18099AN  26169.09264234  .00004871  00000+0  20865-3 0  9991
2 43794  97.3957 220.7302 0030419 301.5982  58.2287 15.22833749413172
HAWK-C                  
1 43799U 18099AT  26169.56845526  .00005949  00000+0  21508-3 0  9999
2 43799  97.3885 222.7056 0038706 280.6754  79.0128 15.28118274414122
SALSAT                  
1 46495U 20068K   26169.45370448  .00006100  00000+0  21401-3 0  9990
2 46495  97.8850 172.5955 0007986 302.8690  57.1780 15.29814902315557
HAWK-2C                 
1 47502U 21006CT  26169.39112975  .00005088  00000+0  15366-3 0  9992
2 47502  97.2272 213.6771 0006824 181.5292 178.5932 15.34675098299681
HAWK-2A                 
1 47505U 21006CW  26169.58921690  .00005154  00000+0  15554-3 0  9991
2 47505  97.2312 214.5499 0006276 183.7955 176.3242 15.34692005299718
HAWK-2B                 
1 47508U 21006CZ  26169.06308422  .00006085  00000+0  18270-3 0  9991
2 47508  97.2185 212.3643 0006808 183.8760 176.2432 15.34776989299637
HAWK-3B                 
1 48931U 21059BE  26169.08929922  .00037571  00000+0  31819-3 0  9994
2 48931  97.6654   5.8821 0003180 327.3278  32.7786 15.69620903277990
HAWK-3C                 
1 48948U 21059BX  26169.08897473  .00034621  00000+0  29341-3 0  9997
2 48948  97.6772  11.5690 0003490 328.3716  31.7335 15.69618054277992
HAWK-3A                 
1 48957U 21059CG  26169.28008274  .00038183  00000+0  32291-3 0  9997
2 48957  97.6716   8.9829 0003460 329.5051  30.6008 15.69650937278022
HAWK-5C                 
1 52754U 22057Y   26169.39860828  .00014052  00000+0  23995-3 0  9999
2 52754  97.6605 329.1429 0004947  79.6625 280.5183 15.51427738226535
HAWK-5B                 
1 52756U 22057AA  26169.39845584  .00014515  00000+0  24773-3 0  9992
2 52756  97.6614 327.4921 0005611  72.4608 287.7256 15.51429515226531
